[{"OBJECT_NAME":"STARLINK-30165","OBJECT_ID":"2023-107A","EPOCH":"2026-03-09T03:47:33.839520","MEAN_MOTION":15.26736421,"ECCENTRICITY":0.00014984,"INCLINATION":42.9999,"RA_OF_ASC_NODE":339.2931,"ARG_OF_PERICENTER":275.8397,"MEAN_ANOMALY":84.2284,"EPHEMERIS_TYPE":0,"CLASSIFICATION_TYPE":"U","NORAD_CAT_ID":57457,"ELEMENT_SET_NO":999,"REV_AT_EPOCH":14505,"BSTAR":7.0020691e-5,"MEAN_MOTION_DOT":1.619e-5,"MEAN_MOTION_DDOT":0},{"OBJECT_NAME":"FLOCK 4G-11","OBJECT_ID":"2025-009W","EPOCH":"2026-03-09T10:57:03.681504","MEAN_MOTION":15.27220677,"ECCENTRICITY":0.00016118,"INCLINATION":97.3964,"RA_OF_ASC_NODE":150.6183,"ARG_OF_PERICENTER":333.5407,"MEAN_ANOMALY":26.575,"EPHEMERIS_TYPE":0,"CLASSIFICATION_TYPE":"U","NORAD_CAT_ID":62629,"ELEMENT_SET_NO":999,"REV_AT_EPOCH":6368,"BSTAR":0.00047740378,"MEAN_MOTION_DOT":0.00012672,"MEAN_MOTION_DDOT":0}]
